NORAD_CAT_ID,OBJECT_NAME,OBJECT_TYPE,EPOCH,MEAN_MOTION,ECCENTRICITY,INCLINATION,RA_OF_ASC_NODE,ARG_OF_PERICENTER,MEAN_ANOMALY,BSTAR,MEAN_MOTION_DOT,MEAN_MOTION_DDOT,TLE_LINE0,TLE_LINE1,TLE_LINE2,SEMIMAJOR_AXIS,PERIOD,APOGEE,PERIGEE,DECAYED
52606.0,STARLINK-3928,PAYLOAD,2022-09-29 21:06:05,15.08852713,0.0001963,53.2181,161.1506,34.9007,325.2114,-0.0001558,-2.768e-05,0.0,0 STARLINK-3928,1 52606U 22052J   22272.87923515 -.00002768  00000-0 -15580-3 0  9992,2 52606  53.2181 161.1506 0001963  34.9007 325.2114 15.08852713 21127,6917.842,95.437,541.065,538.349,0.0
52606.0,STARLINK-3928,PAYLOAD,2022-09-30 01:52:15,15.088443599999998,0.0001966,53.2181,160.2624,41.9859,318.1283,-1.8176e-05,-5.78e-06,0.0,0 STARLINK-3928,1 52606U 22052J   22273.07795467 -.00000578  00000-0 -18176-4 0  9990,2 52606  53.2181 160.2624 0001966  41.9859 318.1283 15.08844360 21525,6917.8669999999975,95.437,541.092,538.372,0.0
52606.0,STARLINK-3928,PAYLOAD,2022-09-30 09:49:11,15.08833431,0.0001976,53.2177,158.7734,44.0971,316.0179,-1.0844000000000003e-05,-4.61e-06,0.0,0 STARLINK-3928,1 52606U 22052J   22273.40916146 -.00000461  00000-0 -10844-4 0  9991,2 52606  53.2177 158.7734 0001976  44.0971 316.0179 15.08833431 21577,6917.9,95.438,541.132,538.398,0.0
52606.0,STARLINK-3928,PAYLOAD,2022-09-30 20:56:52,15.08844602,0.0002084,53.2181,156.6919,43.4403,316.6753,4.3915e-05,4.11e-06,0.0,0 STARLINK-3928,1 52606U 22052J   22273.87283247  .00000411  00000-0  43915-4 0  9999,2 52606  53.2181 156.6919 0002084  43.4403 316.6753 15.08844602 21271,6917.866,95.437,541.173,538.29,0.0
52606.0,STARLINK-3928,PAYLOAD,2022-10-01 01:43:01,15.08849354,0.0001955999999999,53.2177,155.799,45.7539,314.3613,8.406100000000001e-05,1.05e-05,0.0,0 STARLINK-3928,1 52606U 22052J   22274.07154704  .00001050  00000-0  84061-4 0  9994,2 52606  53.2177 155.7990 0001956  45.7539 314.3613 15.08849354 21670,6917.852,95.437,541.07,538.364,0.0
52606.0,STARLINK-3928,PAYLOAD,2022-10-01 09:39:57,15.08848688,0.0001916999999999,53.2166,154.313,42.4935,317.6205,4.872e-05,4.87e-06,0.0,0 STARLINK-3928,1 52606U 22052J   22274.40274685  .00000487  00000-0  48720-4 0  9997,2 52606  53.2166 154.3130 0001917  42.4935 317.6205 15.08848688 21357,6917.854,95.437,541.045,538.393,0.0
52606.0,STARLINK-3928,PAYLOAD,2022-10-01 20:47:38,15.08850029,0.000193,53.2169,152.2302,44.3024,315.8123,9.6604e-05,1.25e-05,0.0,0 STARLINK-3928,1 52606U 22052J   22274.86642209  .00001250  00000-0  96604-4 0  9991,2 52606  53.2169 152.2302 0001930  44.3024 315.8123 15.08850029 21422,6917.85,95.437,541.05,538.38,0.0
52606.0,STARLINK-3928,PAYLOAD,2022-10-02 09:30:44,15.08842245,0.0002096,53.2181,149.8506,47.5562,312.5607,-2.7694e-06,-3.32e-06,0.0,0 STARLINK-3928,1 52606U 22052J   22275.39634798 -.00000332  00000-0 -27694-5 0  9990,2 52606  53.2181 149.8506 0002096  47.5562 312.5607 15.08842245 21501,6917.874,95.437,541.189,538.289,0.0
52606.0,STARLINK-3928,PAYLOAD,2022-10-02 20:38:26,15.08842355,0.0001737,53.2175,147.7678,53.0335,307.0816,-4.7951e-05,-1.051e-05,0.0,0 STARLINK-3928,1 52606U 22052J   22275.86002799 -.00001051  00000-0 -47951-4 0  9998,2 52606  53.2175 147.7678 0001737  53.0335 307.0816 15.08842355 21572,6917.873000000001,95.437,540.94,538.5369999999998,0.0
52606.0,STARLINK-3928,PAYLOAD,2022-10-03 01:24:35,15.08849065,0.0001959,53.218,146.8785,44.1422,315.9726,-2.412300000000001e-05,-6.72e-06,0.0,0 STARLINK-3928,1 52606U 22052J   22276.05874335 -.00000672  00000-0 -24123-4 0  9997,2 52606  53.2180 146.8785 0001959  44.1422 315.9726 15.08849065 21608,6917.853,95.437,541.073,538.362,0.0
52606.0,STARLINK-3928,PAYLOAD,2022-10-03 15:43:03,15.08850949,0.0001988,53.2181,144.2024,42.5617,317.5529,-3.1424e-06,-3.38e-06,0.0,0 STARLINK-3928,1 52606U 22052J   22276.65489733 -.00000338  00000-0 -31424-5 0  9999,2 52606  53.2181 144.2024 0001988  42.5617 317.5529 15.08850949 22060,6917.847,95.437,541.087,538.337,0.0
52606.0,STARLINK-3928,PAYLOAD,2022-10-03 20:29:13,15.08841028,0.0002026,53.2178,143.3101,45.3034,314.8123,-0.00010317,-1.93e-05,0.0,0 STARLINK-3928,1 52606U 22052J   22276.85362639 -.00001930  00000-0 -10317-3 0  9991,2 52606  53.2178 143.3101 0002026  45.3034 314.8123 15.08841028 21720,6917.877,95.437,541.144,538.341,0.0
52606.0,STARLINK-3928,PAYLOAD,2022-10-03 23:39:59,15.08844382,0.0002023,53.2175,142.7159,42.4658,317.6491,-0.00010339,-1.934e-05,0.0,0 STARLINK-3928,1 52606U 22052J   22276.98610413 -.00001934  00000-0 -10339-3 0  9999,2 52606  53.2175 142.7159 0002023  42.4658 317.6491 15.08844382 22119,6917.8669999999975,95.437,541.131,538.3330000000002,0.0
52606.0,STARLINK-3928,PAYLOAD,2022-10-04 07:36:54,15.0884521,0.000206,53.2179,141.2291,43.8869,316.2286,-8.8521e-05,-1.697e-05,0.0,0 STARLINK-3928,1 52606U 22052J   22277.31730226 -.00001697  00000-0 -88521-4 0  9997,2 52606  53.2179 141.2291 0002060  43.8869 316.2286 15.08845210 21795,6917.864000000001,95.437,541.155,538.304,0.0
52606.0,STARLINK-3928,PAYLOAD,2022-10-04 21:55:24,15.08827463,0.0002205,53.2191,138.5541,51.5028,308.6161,-2.0457e-05,-6.14e-06,0.0,0 STARLINK-3928,1 52606U 22052J   22277.91347443 -.00000614  00000-0 -20457-4 0  9990,2 52606  53.2191 138.5541 0002205  51.5028 308.6161 15.08827463 21887,6917.919,95.438,541.309,538.258,0.0
52606.0,STARLINK-3928,PAYLOAD,2022-10-04 23:30:47,15.0882644,0.0001821,53.2174,138.259,50.1755,309.9397,-0.00010757,-1.999e-05,0.0,0 STARLINK-3928,1 52606U 22052J   22277.97971803 -.00001999  00000-0 -10757-3 0  9997,2 52606  53.2174 138.2590 0001821  50.1755 309.9397 15.08826440 22266,6917.922,95.438,541.047,538.5269999999998,0.0
52606.0,STARLINK-3928,PAYLOAD,2022-10-05 07:27:44,15.08819338,0.0001911,53.2171,136.7691,42.5585,317.5555,-0.0001431,-2.564e-05,0.0,0 STARLINK-3928,1 52606U 22052J   22278.31092706 -.00002564  00000-0 -14310-3 0  9990,2 52606  53.2171 136.7691 0001911  42.5585 317.5555 15.08819338 22319,6917.944,95.439,541.131,538.487,0.0
52606.0,STARLINK-3928,PAYLOAD,2022-10-05 20:10:48,15.08826083,0.0002000999999999,53.2169,134.39,43.3475,316.7675,-2.7225e-06,-3.31e-06,0.0,0 STARLINK-3928,1 52606U 22052J   22278.84084252 -.00000331  00000-0 -27225-5 0  9996,2 52606  53.2169 134.3900 0002001  43.3475 316.7675 15.08826083 22028,6917.9230000000025,95.438,541.172,538.404,0.0
52606.0,STARLINK-3928,PAYLOAD,2022-10-06 00:56:57,15.08831698,0.0001971,53.2171,133.4983,46.1906,313.9249,4.5352e-05,4.34e-06,0.0,0 STARLINK-3928,1 52606U 22052J   22279.03955888  .00000434  00000-0  45352-4 0  9992,2 52606  53.2171 133.4983 0001971  46.1906 313.9249 15.08831698 22425,6917.906,95.438,541.134,538.4069999999998,0.0
52606.0,STARLINK-3928,PAYLOAD,2022-10-06 07:18:30,15.08839166,0.0002020999999999,53.2172,132.3087,45.4139,314.7018,6.5567e-05,7.55e-06,0.0,0 STARLINK-3928,1 52606U 22052J   22279.30451489  .00000755  00000-0  65567-4 0  9996,2 52606  53.2172 132.3087 0002021  45.4139 314.7018 15.08839166 22090,6917.8830000000025,95.438,541.146,538.35,0.0
52606.0,STARLINK-3928,PAYLOAD,2022-10-06 18:26:12,15.08826113,0.0001872,53.2162,130.2226,24.8713,335.2369,9.3476e-05,1.199e-05,0.0,0 STARLINK-3928,1 52606U 22052J   22279.76820177  .00001199  00000-0  93476-4 0  9993,2 52606  53.2162 130.2226 0001872  24.8713 335.2369 15.08826113 22166,6917.9230000000025,95.438,541.0830000000002,538.493,0.0
52606.0,STARLINK-3928,PAYLOAD,2022-10-06 23:12:21,15.0885742,0.0001791,53.2184,129.3328,38.914,321.1981,-0.00011671,-2.146e-05,0.0,0 STARLINK-3928,1 52606U 22052J   22279.96691393 -.00002146  00000-0 -11671-3 0  9992,2 52606  53.2184 129.3328 0001791  38.9140 321.1981 15.08857420 22565,6917.8269999999975,95.436,540.931,538.453,0.0
52606.0,STARLINK-3928,PAYLOAD,2022-10-07 07:09:17,15.08829257,0.0002157,53.2165,127.8441,39.5907,320.5242,0.00011468,1.537e-05,0.0,0 STARLINK-3928,1 52606U 22052J   22280.29812313  .00001537  00000-0  11468-3 0  9992,2 52606  53.2165 127.8441 0002157  39.5907 320.5242 15.08829257 22243,6917.913000000001,95.438,541.27,538.286,0.0
52606.0,STARLINK-3928,PAYLOAD,2022-10-07 21:27:46,15.08834139,0.0001768,53.2186,125.1691,51.6989,308.4162,1.2457e-06,-2.68e-06,0.0,0 STARLINK-3928,1 52606U 22052J   22280.89428631 -.00000268  00000-0  12457-5 0  9996,2 52606  53.2186 125.1691 0001768  51.6989 308.4162 15.08834139 22337,6917.898,95.438,540.986,538.54,0.0
52606.0,STARLINK-3928,PAYLOAD,2022-10-08 07:00:04,15.08838216,0.000192,53.2178,123.3862,44.8118,315.3029,1.3713e-05,-7e-07,0.0,0 STARLINK-3928,1 52606U 22052J   22281.29172412 -.00000070  00000-0  13713-4 0  9990,2 52606  53.2178 123.3862 0001920  44.8118 315.3029 15.08838216 22391,6917.886,95.438,541.0790000000002,538.423,0.0
52606.0,STARLINK-3928,PAYLOAD,2022-10-08 19:43:10,15.08835691,0.0002019,53.2184,121.0077,49.0487,311.0679,-8.4385e-05,-1.631e-05,0.0,0 STARLINK-3928,1 52606U 22052J   22281.82164747 -.00001631  00000-0 -84385-4 0  9999,2 52606  53.2184 121.0077 0002019  49.0487 311.0679 15.08835691 22845,6917.894,95.438,541.155,538.362,0.0
52606.0,STARLINK-3928,PAYLOAD,2022-10-09 06:50:52,15.088327800000002,0.0002089,53.2182,118.9253,49.5139,310.6035,-9.7167e-05,-1.834e-05,0.0,0 STARLINK-3928,1 52606U 22052J   22282.28533047 -.00001834  00000-0 -97167-4 0  9990,2 52606  53.2182 118.9253 0002089  49.5139 310.6035 15.08832780 22544,6917.901999999999,95.438,541.2130000000002,538.322,0.0
52606.0,STARLINK-3928,PAYLOAD,2022-10-09 16:23:10,15.08840676,0.0002110999999999,53.2177,117.1425,43.6421,316.4738,3.1061999999999995e-05,2.06e-06,0.0,0 STARLINK-3928,1 52606U 22052J   22282.68275995  .00000206  00000-0  31062-4 0  9991,2 52606  53.2177 117.1425 0002111  43.6421 316.4738 15.08840676 22979,6917.878000000002,95.438,541.2040000000002,538.283,0.0
52606.0,STARLINK-3928,PAYLOAD,2022-10-09 19:33:57,15.08834646,0.0002185,53.218,116.5486,42.6627,317.4535,3.8845e-05,3.3e-06,0.0,0 STARLINK-3928,1 52606U 22052J   22282.81524317  .00000330  00000-0  38845-4 0  9995,2 52606  53.2180 116.5486 0002185  42.6627 317.4535 15.08834646 22629,6917.897,95.438,541.273,538.25,0.0
